NORAD_CAT_ID,OBJECT_NAME,OBJECT_TYPE,EPOCH,MEAN_MOTION,ECCENTRICITY,INCLINATION,RA_OF_ASC_NODE,ARG_OF_PERICENTER,MEAN_ANOMALY,BSTAR,MEAN_MOTION_DOT,MEAN_MOTION_DDOT,TLE_LINE0,TLE_LINE1,TLE_LINE2,SEMIMAJOR_AXIS,PERIOD,APOGEE,PERIGEE,DECAYED
55751.0,STARLINK-5577,PAYLOAD,2023-10-16 02:30:04,14.98333633,0.0003053,69.9983,292.2075,270.0384,90.0426,7.8353e-05,8.42e-06,0.0,0 STARLINK-5577,1 55751U 23028L   23289.10422229  .00000842  00000-0  78353-4 0  9998,2 55751  69.9983 292.2075 0003053 270.0384  90.0426 14.98333633 34888,6950.182,96.107,574.169,569.925,0.0
55751.0,STARLINK-5577,PAYLOAD,2023-10-16 10:30:44,14.98336638,0.0002867,69.9994,291.3669,271.9935,88.0896,0.0001165,1.298e-05,0.0,0 STARLINK-5577,1 55751U 23028L   23289.43801952  .00001298  00000-0  11650-3 0  9990,2 55751  69.9994 291.3669 0002867 271.9935  88.0896 14.98336638 34935,6950.172,96.107,574.03,570.045,0.0
55751.0,STARLINK-5577,PAYLOAD,2023-10-17 10:32:46,14.98327479,0.0002588,69.9994,288.8422,266.6735,93.4128,0.00015984,1.815e-05,0.0,0 STARLINK-5577,1 55751U 23028L   23290.43942396  .00001815  00000-0  15984-3 0  9999,2 55751  69.9994 288.8422 0002588 266.6735  93.4128 14.98327479 35080,6950.201,96.107,573.864,570.267,0.0
55751.0,STARLINK-5577,PAYLOAD,2023-10-17 16:57:17,14.98353462,0.0002481,70.0001,288.169,270.568,89.5195,-0.00040884,-4.971e-05,0.0,0 STARLINK-5577,1 55751U 23028L   23290.70645563 -.00004971  00000-0 -40884-3 0  9990,2 55751  70.0001 288.1690 0002481 270.5680  89.5195 14.98353462 35123,6950.12,96.105,573.71,570.261,0.0
55751.0,STARLINK-5577,PAYLOAD,2023-10-18 02:34:06,14.98336078,0.0002762,69.9992,287.1599,260.9574,99.1273,6.3191e-05,6.61e-06,0.0,0 STARLINK-5577,1 55751U 23028L   23291.10701952  .00000661  00000-0  63191-4 0  9997,2 55751  69.9992 287.1599 0002762 260.9574  99.1273 14.98336078 35187,6950.174,96.107,573.959,570.119,0.0
55751.0,STARLINK-5577,PAYLOAD,2023-10-18 10:34:46,14.98335318,0.0002696,69.9989,286.317,261.2988,98.7866,5.2521e-05,5.34e-06,0.0,0 STARLINK-5577,1 55751U 23028L   23291.44081931  .00000534  00000-0  52521-4 0  9996,2 55751  69.9989 286.3170 0002696 261.2988  98.7866 14.98335318 35233,6950.176,96.107,573.915,570.168,0.0
55751.0,STARLINK-5577,PAYLOAD,2023-10-19 02:36:07,14.98330698,0.0002875,69.9986,284.6335,266.4758,93.6073,6.5145e-05,6.84e-06,0.0,0 STARLINK-5577,1 55751U 23028L   23292.10842117  .00000684  00000-0  65145-4 0  9993,2 55751  69.9986 284.6335 0002875 266.4758  93.6073 14.98330698 35336,6950.191,96.107,574.054,570.058,0.0
55751.0,STARLINK-5577,PAYLOAD,2023-10-19 09:00:39,14.98333667,0.000293,69.9986,283.9599,266.2937,93.7887,8.4689e-05,9.18e-06,0.0,0 STARLINK-5577,1 55751U 23028L   23292.37545843  .00000918  00000-0  84689-4 0  9992,2 55751  69.9986 283.9599 0002930 266.2937  93.7887 14.98333667 35376,6950.182,96.107,574.083,570.01,0.0
55751.0,STARLINK-5577,PAYLOAD,2023-10-19 17:01:21,14.98318173,0.0002962,69.9991,283.1179,265.4953,94.5868,-0.00010912,-1.394e-05,0.0,0 STARLINK-5577,1 55751U 23028L   23292.70927358 -.00001394  00000-0 -10912-3 0  9992,2 55751  69.9991 283.1179 0002962 265.4953  94.5868 14.98318173 35421,6950.229,96.108,574.153,570.036,0.0
55751.0,STARLINK-5577,PAYLOAD,2023-10-20 02:38:11,14.98294368,0.0002802,69.9988,282.1086,267.0175,93.0663,-0.00032188,-3.928e-05,0.0,0 STARLINK-5577,1 55751U 23028L   23293.10986077 -.00003928  00000-0 -32188-3 0  9994,2 55751  69.9988 282.1086 0002802 267.0175  93.0663 14.98294368 35482,6950.303,96.109,574.116,570.221,0.0
55751.0,STARLINK-5577,PAYLOAD,2023-10-20 09:02:41,14.98329173,0.0003018,69.9981,281.4345,265.6829,94.3985,5.3317e-05,5.43e-06,0.0,0 STARLINK-5577,1 55751U 23028L   23293.37687196  .00000543  00000-0  53317-4 0  9999,2 55751  69.9981 281.4345 0003018 265.6829  94.3985 14.98329173 35524,6950.195,96.107,574.158,569.963,0.0
55751.0,STARLINK-5577,PAYLOAD,2023-10-21 09:04:40,14.9835037,0.0003063,69.9989,278.9093,256.7484,103.3334,0.00031517,3.671e-05,0.0,0 STARLINK-5577,1 55751U 23028L   23294.37825188  .00003671  00000-0  31517-3 0  9997,2 55751  69.9989 278.9093 0003063 256.7484 103.3334 14.98350370 35679,6950.13,96.106,574.124,569.866,0.0
55751.0,STARLINK-5577,PAYLOAD,2023-10-22 02:42:10,14.9832297,0.0002223,70.0005,277.0586,244.0644,116.0286,0.00050156,5.895e-05,0.0,0 STARLINK-5577,1 55751U 23028L   23295.11262490  .00005895  00000-0  50156-3 0  9991,2 55751  70.0005 277.0586 0002223 244.0644 116.0286 14.98322970 35787,6950.215,96.107,573.625,570.535,0.0
55751.0,STARLINK-5577,PAYLOAD,2023-10-22 09:06:43,14.98319046,0.00025,70.0004,276.3845,265.8396,94.2478,0.00056167,6.613e-05,0.0,0 STARLINK-5577,1 55751U 23028L   23295.37966813  .00006613  00000-0  56167-3 0  9996,2 55751  70.0004 276.3845 0002500 265.8396  94.2478 14.98319046 35824,6950.227,96.108,573.829,570.354,0.0
55751.0,STARLINK-5577,PAYLOAD,2023-10-22 15:31:15,14.98335674,0.0002211,70.0017,275.7103,280.98,79.1111,9.5895e-05,1.052e-05,0.0,0 STARLINK-5577,1 55751U 23028L   23295.64670563  .00001052  00000-0  95895-4 0  9994,2 55751  70.0017 275.7103 0002211 280.9800  79.1111 14.98335674 35860,6950.175,96.107,573.577,570.504,0.0
55751.0,STARLINK-5577,PAYLOAD,2023-10-23 02:44:12,14.98327504,0.0002803,69.9987,274.5318,274.206,85.8779,7.4142e-06,-5e-08,0.0,0 STARLINK-5577,1 55751U 23028L   23296.11402929 -.00000005  00000-0  74142-5 0  9997,2 55751  69.9987 274.5318 0002803 274.2060  85.8779 14.98327504 35934,6950.201,96.107,574.014,570.117,0.0
55751.0,STARLINK-5577,PAYLOAD,2023-10-23 09:08:44,14.98330778,0.0002402,69.9998,273.8585,271.1133,88.9751,-7.8703e-06,-1.87e-06,0.0,0 STARLINK-5577,1 55751U 23028L   23296.38106760 -.00000187  00000-0 -78703-5 0  9999,2 55751  69.9998 273.8585 0002402 271.1133  88.9751 14.98330778 35971,6950.19,96.107,573.725,570.386,0.0
55751.0,STARLINK-5577,PAYLOAD,2023-10-24 04:22:20,14.98336667,0.0002451,69.9991,271.839,256.853,103.2356,-2.6645e-05,-4.11e-06,0.0,0 STARLINK-5577,1 55751U 23028L   23297.18217923 -.00000411  00000-0 -26645-4 0  9999,2 55751  69.9991 271.8390 0002451 256.8530 103.2356 14.98336667 36090,6950.172,96.107,573.741,570.334,0.0
55751.0,STARLINK-5577,PAYLOAD,2023-10-24 07:34:36,14.98332079,0.0002546,69.9991,271.5027,260.5089,99.5783,5.9137e-05,6.13e-06,0.0,0 STARLINK-5577,1 55751U 23028L   23297.31570026  .00000613  00000-0  59137-4 0  9994,2 55751  69.9991 271.5027 0002546 260.5089  99.5783 14.98332079 36117,6950.186,96.107,573.821,570.282,0.0
55751.0,STARLINK-5577,PAYLOAD,2023-10-25 07:36:37,14.9832919,0.0002579,69.9994,268.9779,268.7894,91.297,0.00010664,1.18e-05,0.0,0 STARLINK-5577,1 55751U 23028L   23298.31710021  .00001180  00000-0  10664-3 0  9997,2 55751  69.9994 268.9779 0002579 268.7894  91.2970 14.98329190 36267,6950.195,96.107,573.853,570.268,0.0
55751.0,STARLINK-5577,PAYLOAD,2023-10-26 07:38:37,14.98332887,0.0002776,70.0003,266.4526,265.7905,94.2937,0.00026406,3.059e-05,0.0,0 STARLINK-5577,1 55751U 23028L   23299.31849344  .00003059  00000-0  26406-3 0  9997,2 55751  70.0003 266.4526 0002776 265.7905  94.2937 14.98332887 36413,6950.184,96.107,573.978,570.12,0.0
55751.0,STARLINK-5577,PAYLOAD,2023-10-26 22:03:50,14.98338859,0.0002764,70.0,264.9377,266.1921,93.8922,-2.9792e-05,-4.48e-06,0.0,0 STARLINK-5577,1 55751U 23028L   23299.91933514 -.00000448  00000-0 -29792-4 0  9999,2 55751  70.0000 264.9377 0002764 266.1921  93.8922 14.98338859 36501,6950.165,96.106,573.952,570.109,0.0
55751.0,STARLINK-5577,PAYLOAD,2023-10-27 04:28:22,14.98331945,0.0002504,70.0004,264.2652,258.4078,101.68,0.0001118,1.241e-05,0.0,0 STARLINK-5577,1 55751U 23028L   23300.18637557  .00001241  00000-0  11180-3 0  9990,2 55751  70.0004 264.2652 0002504 258.4078 101.6800 14.98331945 36549,6950.187,96.107,573.792,570.312,0.0
55751.0,STARLINK-5577,PAYLOAD,2023-10-27 07:40:38,14.98342926,0.0002567,70.0006,263.9285,269.6589,90.4276,5.6388e-05,5.8e-06,0.0,0 STARLINK-5577,1 55751U 23028L   23300.31988905  .00000580  00000-0  56388-4 0  9996,2 55751  70.0006 263.9285 0002567 269.6589  90.4276 14.98342926 36564,6950.153,96.106,573.802,570.234,0.0
55751.0,STARLINK-5577,PAYLOAD,2023-10-27 22:05:51,14.98331389,0.0002409,70.0015,262.4148,266.4171,93.6712,4.2593e-05,4.15e-06,0.0,0 STARLINK-5577,1 55751U 23028L   23300.92073627  .00000415  00000-0  42593-4 0  9999,2 55751  70.0015 262.4148 0002409 266.4171  93.6712 14.98331389 36654,6950.189,96.107,573.728,570.379,0.0
55751.0,STARLINK-5577,PAYLOAD,2023-10-27 23:41:59,14.98328053,0.0002779,70.0001,262.2462,276.0101,84.0741,1.5236e-05,8.9e-07,0.0,0 STARLINK-5577,1 55751U 23028L   23300.98749929  .00000089  00000-0  15236-4 0  9991,2 55751  70.0001 262.2462 0002779 276.0101  84.0741 14.98328053 36667,6950.199,96.107,573.995,570.132,0.0
55751.0,STARLINK-5577,PAYLOAD,2023-10-28 07:42:40,14.98317622,0.0002475,70.0004,261.4044,269.5049,90.5826,6.0773e-05,6.32e-06,0.0,0 STARLINK-5577,1 55751U 23028L   23301.32130638  .00000632  00000-0  60773-4 0  9991,2 55751  70.0004 261.4044 0002475 269.5049  90.5826 14.98317622 36710,6950.231,96.108,573.816,570.376,0.0
55751.0,STARLINK-5577,PAYLOAD,2023-10-28 22:07:52,14.9833212,0.0002824,70.0017,259.8901,272.3306,87.753,6.216e-05,6.49e-06,0.0,0 STARLINK-5577,1 55751U 23028L   23301.92213631  .00000649  00000-0  62160-4 0  9992,2 55751  70.0017 259.8901 0002824 272.3306  87.7530 14.98332120 36803,6950.186,96.107,574.014,570.089,0.0
55751.0,STARLINK-5577,PAYLOAD,2023-10-29 04:32:24,14.98336841,0.0002197,70.0008,259.2171,246.8114,113.2814,8.9018e-05,9.7e-06,0.0,0 STARLINK-5577,1 55751U 23028L   23302.18917224  .00000970  00000-0  89018-4 0  9998,2 55751  70.0008 259.2171 0002197 246.8114 113.2814 14.98336841 36840,6950.172,96.107,573.564,570.51,0.0
55751.0,STARLINK-5577,PAYLOAD,2023-10-29 14:09:13,14.98334304,0.0001579,70.0026,258.2051,296.3023,63.7974,4.7361e-07,-8.7e-07,0.0,0 STARLINK-5577,1 55751U 23028L   23302.58973837 -.00000087  00000-0  47361-6 0  9991,2 55751  70.0026 258.2051 0001579 296.3023  63.7974 14.98334304 36903,6950.18,96.107,573.142,570.947,0.0
